CCSDS_OMM_VERS = 2.0
CREATION_DATE  = 
ORIGINATOR     = 

OBJECT_NAME    = SL-4 R/B
OBJECT_ID      = 2014-021B
CENTER_NAME    = EARTH
REF_FRAME      = TEME
TIME_SYSTEM    = UTC
MEAN_ELEMENT_THEORY = SGP/SGP4

EPOCH          = 2026-02-11T04:41:17.235168
MEAN_MOTION    = 15.38313107
ECCENTRICITY   = .00989143
INCLINATION    = 51.6068
RA_OF_ASC_NODE = 106.4386
ARG_OF_PERICENTER = 6.4393
MEAN_ANOMALY   = 353.7836

EPHEMERIS_TYPE = 0
CLASSIFICATION_TYPE = U
NORAD_CAT_ID   = 39679
ELEMENT_SET_NO = 999
REV_AT_EPOCH   = 65219
BSTAR          = .306209E-3
MEAN_MOTION_DOT = .13476E-3
MEAN_MOTION_DDOT = 0

CCSDS_OMM_VERS = 2.0
CREATION_DATE  = 
ORIGINATOR     = 

OBJECT_NAME    = ALOS-2
OBJECT_ID      = 2014-029A
CENTER_NAME    = EARTH
REF_FRAME      = TEME
TIME_SYSTEM    = UTC
MEAN_ELEMENT_THEORY = SGP/SGP4

EPOCH          = 2026-02-11T14:42:04.312224
MEAN_MOTION    = 14.79443837
ECCENTRICITY   = .000147
INCLINATION    = 97.9216
RA_OF_ASC_NODE = 141.5858
ARG_OF_PERICENTER = 111.5313
MEAN_ANOMALY   = 248.6055

EPHEMERIS_TYPE = 0
CLASSIFICATION_TYPE = U
NORAD_CAT_ID   = 39766
ELEMENT_SET_NO = 999
REV_AT_EPOCH   = 63301
BSTAR          = .68974E-4
MEAN_MOTION_DOT = .463E-5
MEAN_MOTION_DDOT = 0

CCSDS_OMM_VERS = 2.0
CREATION_DATE  = 
ORIGINATOR     = 

OBJECT_NAME    = YAOGAN-29
OBJECT_ID      = 2015-069A
CENTER_NAME    = EARTH
REF_FRAME      = TEME
TIME_SYSTEM    = UTC
MEAN_ELEMENT_THEORY = SGP/SGP4

EPOCH          = 2026-02-11T06:39:48.281760
MEAN_MOTION    = 14.82963542
ECCENTRICITY   = .00028433
INCLINATION    = 98.0179
RA_OF_ASC_NODE = 70.6335
ARG_OF_PERICENTER = 79.3027
MEAN_ANOMALY   = 280.8506

EPHEMERIS_TYPE = 0
CLASSIFICATION_TYPE = U
NORAD_CAT_ID   = 41038
ELEMENT_SET_NO = 999
REV_AT_EPOCH   = 55196
BSTAR          = .32593077E-4
MEAN_MOTION_DOT = .21E-5
MEAN_MOTION_DDOT = 0

CCSDS_OMM_VERS = 2.0
CREATION_DATE  = 
ORIGINATOR     = 

OBJECT_NAME    = ASTRO-H (HITOMI)
OBJECT_ID      = 2016-012A
CENTER_NAME    = EARTH
REF_FRAME      = TEME
TIME_SYSTEM    = UTC
MEAN_ELEMENT_THEORY = SGP/SGP4

EPOCH          = 2026-02-09T19:16:13.485504
MEAN_MOTION    = 15.09800486
ECCENTRICITY   = .00098812
INCLINATION    = 30.9978
RA_OF_ASC_NODE = 176.4765
ARG_OF_PERICENTER = 52.0240
MEAN_ANOMALY   = 308.1289

EPHEMERIS_TYPE = 0
CLASSIFICATION_TYPE = U
NORAD_CAT_ID   = 41337
ELEMENT_SET_NO = 999
REV_AT_EPOCH   = 54801
BSTAR          = .22700918E-3
MEAN_MOTION_DOT = .3857E-4
MEAN_MOTION_DDOT = 0

CCSDS_OMM_VERS = 2.0
CREATION_DATE  = 
ORIGINATOR     = 

OBJECT_NAME    = HXMT (HUIYAN)
OBJECT_ID      = 2017-034A
CENTER_NAME    = EARTH
REF_FRAME      = TEME
TIME_SYSTEM    = UTC
MEAN_ELEMENT_THEORY = SGP/SGP4

EPOCH          = 2026-02-11T07:31:51.919104
MEAN_MOTION    = 15.17113278
ECCENTRICITY   = .00307688
INCLINATION    = 43.0132
RA_OF_ASC_NODE = 163.2721
ARG_OF_PERICENTER = 66.8738
MEAN_ANOMALY   = 293.5348

EPHEMERIS_TYPE = 0
CLASSIFICATION_TYPE = U
NORAD_CAT_ID   = 42758
ELEMENT_SET_NO = 999
REV_AT_EPOCH   = 47853
BSTAR          = .35598327E-3
MEAN_MOTION_DOT = .7036E-4
MEAN_MOTION_DDOT = 0

CCSDS_OMM_VERS = 2.0
CREATION_DATE  = 
ORIGINATOR     = 

OBJECT_NAME    = CZ-2C R/B
OBJECT_ID      = 2018-054D
CENTER_NAME    = EARTH
REF_FRAME      = TEME
TIME_SYSTEM    = UTC
MEAN_ELEMENT_THEORY = SGP/SGP4

EPOCH          = 2026-02-11T06:14:09.518496
MEAN_MOTION    = 15.98303980
ECCENTRICITY   = .00123859
INCLINATION    = 35.1278
RA_OF_ASC_NODE = 124.7737
ARG_OF_PERICENTER = 48.5305
MEAN_ANOMALY   = 311.6498

EPHEMERIS_TYPE = 0
CLASSIFICATION_TYPE = U
NORAD_CAT_ID   = 43521
ELEMENT_SET_NO = 999
REV_AT_EPOCH   = 42465
BSTAR          = .91448643E-3
MEAN_MOTION_DOT = .45034E-2
MEAN_MOTION_DDOT = .84112739E-4

CCSDS_OMM_VERS = 2.0
CREATION_DATE  = 
ORIGINATOR     = 

OBJECT_NAME    = SAOCOM 1A
OBJECT_ID      = 2018-076A
CENTER_NAME    = EARTH
REF_FRAME      = TEME
TIME_SYSTEM    = UTC
MEAN_ELEMENT_THEORY = SGP/SGP4

EPOCH          = 2026-02-11T05:29:29.827680
MEAN_MOTION    = 14.82162600
ECCENTRICITY   = .00014383
INCLINATION    = 97.8877
RA_OF_ASC_NODE = 230.7763
ARG_OF_PERICENTER = 83.3358
MEAN_ANOMALY   = 276.8019

EPHEMERIS_TYPE = 0
CLASSIFICATION_TYPE = U
NORAD_CAT_ID   = 43641
ELEMENT_SET_NO = 999
REV_AT_EPOCH   = 39744
BSTAR          = .87917627E-4
MEAN_MOTION_DOT = .648E-5
MEAN_MOTION_DDOT = 0

CCSDS_OMM_VERS = 2.0
CREATION_DATE  = 
ORIGINATOR     = 

OBJECT_NAME    = H-2A R/B
OBJECT_ID      = 2018-084L
CENTER_NAME    = EARTH
REF_FRAME      = TEME
TIME_SYSTEM    = UTC
MEAN_ELEMENT_THEORY = SGP/SGP4

EPOCH          = 2026-02-11T00:58:20.684352
MEAN_MOTION    = 15.40170146
ECCENTRICITY   = .00263285
INCLINATION    = 98.8764
RA_OF_ASC_NODE = 253.7560
ARG_OF_PERICENTER = 114.8220
MEAN_ANOMALY   = 245.5764

EPHEMERIS_TYPE = 0
CLASSIFICATION_TYPE = U
NORAD_CAT_ID   = 43682
ELEMENT_SET_NO = 999
REV_AT_EPOCH   = 40167
BSTAR          = .47976346E-3
MEAN_MOTION_DOT = .19399E-3
MEAN_MOTION_DDOT = 0

CCSDS_OMM_VERS = 2.0
CREATION_DATE  = 
ORIGINATOR     = 

OBJECT_NAME    = SAOCOM 1B
OBJECT_ID      = 2020-059A
CENTER_NAME    = EARTH
REF_FRAME      = TEME
TIME_SYSTEM    = UTC
MEAN_ELEMENT_THEORY = SGP/SGP4

EPOCH          = 2026-02-11T06:14:30.507648
MEAN_MOTION    = 14.82139811
ECCENTRICITY   = .00014222
INCLINATION    = 97.8874
RA_OF_ASC_NODE = 229.9049
ARG_OF_PERICENTER = 88.1017
MEAN_ANOMALY   = 272.0359

EPHEMERIS_TYPE = 0
CLASSIFICATION_TYPE = U
NORAD_CAT_ID   = 46265
ELEMENT_SET_NO = 999
REV_AT_EPOCH   = 29483
BSTAR          = .4024719E-4
MEAN_MOTION_DOT = .268E-5
MEAN_MOTION_DDOT = 0

CCSDS_OMM_VERS = 2.0
CREATION_DATE  = 
ORIGINATOR     = 

OBJECT_NAME    = CSS (TIANHE)
OBJECT_ID      = 2021-035A
CENTER_NAME    = EARTH
REF_FRAME      = TEME
TIME_SYSTEM    = UTC
MEAN_ELEMENT_THEORY = SGP/SGP4

EPOCH          = 2026-02-11T06:38:36.879072
MEAN_MOTION    = 15.59483141
ECCENTRICITY   = .00043473
INCLINATION    = 41.4684
RA_OF_ASC_NODE = 8.7316
ARG_OF_PERICENTER = 58.3290
MEAN_ANOMALY   = 301.7972

EPHEMERIS_TYPE = 0
CLASSIFICATION_TYPE = U
NORAD_CAT_ID   = 48274
ELEMENT_SET_NO = 999
REV_AT_EPOCH   = 27348
BSTAR          = .3475522E-3
MEAN_MOTION_DOT = .28117E-3
MEAN_MOTION_DDOT = 0

CCSDS_OMM_VERS = 2.0
CREATION_DATE  = 
ORIGINATOR     = 

OBJECT_NAME    = COSMOS 2550
OBJECT_ID      = 2021-056A
CENTER_NAME    = EARTH
REF_FRAME      = TEME
TIME_SYSTEM    = UTC
MEAN_ELEMENT_THEORY = SGP/SGP4

EPOCH          = 2026-02-11T15:07:05.277216
MEAN_MOTION    = 15.33837935
ECCENTRICITY   = .0008316
INCLINATION    = 67.1428
RA_OF_ASC_NODE = 119.7592
ARG_OF_PERICENTER = 270.2432
MEAN_ANOMALY   = 89.7770

EPHEMERIS_TYPE = 0
CLASSIFICATION_TYPE = U
NORAD_CAT_ID   = 48865
ELEMENT_SET_NO = 999
REV_AT_EPOCH   = 25946
BSTAR          = .45267E-5
MEAN_MOTION_DOT = -.43E-6
MEAN_MOTION_DDOT = 0

CCSDS_OMM_VERS = 2.0
CREATION_DATE  = 
ORIGINATOR     = 

OBJECT_NAME    = CZ-2C R/B
OBJECT_ID      = 2022-058K
CENTER_NAME    = EARTH
REF_FRAME      = TEME
TIME_SYSTEM    = UTC
MEAN_ELEMENT_THEORY = SGP/SGP4

EPOCH          = 2026-02-11T03:15:32.622336
MEAN_MOTION    = 15.52350457
ECCENTRICITY   = .00422333
INCLINATION    = 50.1892
RA_OF_ASC_NODE = 94.6835
ARG_OF_PERICENTER = 87.9822
MEAN_ANOMALY   = 272.5984

EPHEMERIS_TYPE = 0
CLASSIFICATION_TYPE = U
NORAD_CAT_ID   = 52794
ELEMENT_SET_NO = 999
REV_AT_EPOCH   = 20600
BSTAR          = .47609487E-3
MEAN_MOTION_DOT = .30349E-3
MEAN_MOTION_DDOT = 0

