SL-4 R/B                
1 39679U 14021B   26042.19533837  .00013476  00000+0  30621-3 0  9990
2 39679  51.6068 106.4386 0098914   6.4393 353.7836 15.38313107652196
ALOS-2                  
1 39766U 14029A   26042.61254991  .00000463  00000+0  68974-4 0  9998
2 39766  97.9216 141.5858 0001470 111.5313 248.6055 14.79443837633019
YAOGAN-29               
1 41038U 15069A   26042.27764215  .00000210  00000+0  32593-4 0  9993
2 41038  98.0179  70.6335 0002843  79.3027 280.8506 14.82963542551960
ASTRO-H (HITOMI)        
1 41337U 16012A   26040.80293386  .00003857  00000+0  22701-3 0  9996
2 41337  30.9978 176.4765 0009881  52.0240 308.1289 15.09800486548011
HXMT (HUIYAN)           
1 42758U 17034A   26042.31379536  .00007036  00000+0  35598-3 0  9990
2 42758  43.0132 163.2721 0030768  66.8738 293.5348 15.17113278478532
CZ-2C R/B               
1 43521U 18054D   26042.25983239  .00450340  84113-4  91449-3 0  9995
2 43521  35.1278 124.7737 0012385  48.5305 311.6498 15.98303980424657
SAOCOM 1A               
1 43641U 18076A   26042.22881745  .00000648  00000+0  87918-4 0  9995
2 43641  97.8877 230.7763 0001438  83.3358 276.8019 14.82162600397440
H-2A R/B                
1 43682U 18084L   26042.04051718  .00019399  00000+0  47976-3 0  9990
2 43682  98.8764 253.7560 0026328 114.8220 245.5764 15.40170146401674
SAOCOM 1B               
1 46265U 20059A   26042.26007532  .00000268  00000+0  40247-4 0  9994
2 46265  97.8874 229.9049 0001422  88.1017 272.0359 14.82139811294839
CSS (TIANHE)            
1 48274U 21035A   26042.27681573  .00028117  00000+0  34755-3 0  9994
2 48274  41.4684   8.7316 0004347  58.3290 301.7972 15.59483141273488
COSMOS 2550             
1 48865U 21056A   26042.62992219 -.00000043  00000+0  45267-5 0  9995
2 48865  67.1428 119.7592 0008316 270.2432  89.7770 15.33837935259464
CZ-2C R/B               
1 52794U 22058K   26042.13579424  .00030349  00000+0  47609-3 0  9990
2 52794  50.1892  94.6835 0042233  87.9822 272.5984 15.52350457206001
